FENGYUN 1C DEB          
1 37442U 99025EHL 17345.55653582  .00002220  00000-0  54138-3 0  9994
2 37442  99.1363 264.6948 0042897 274.8279  84.8017 14.53295905166353
